{
  "type": "FeatureCollection",
  "features": [
    {
      "type": "Feature",
      "id": "DEMO-A",
      "properties": {
        "title": "DEMO NOTAM A",
        "description": "Synthetic offshore circular area near the example route. Not a real NOTAM.",
        "demo": true,
        "radius_m": 140000,
        "color": "#ffb347"
      },
      "geometry": { "type": "Point", "coordinates": [-20, 43] }
    },
    {
      "type": "Feature",
      "id": "DEMO-B",
      "properties": {
        "title": "DEMO NOTAM B",
        "description": "Synthetic polygon near the example route. Not a real NOTAM.",
        "demo": true,
        "color": "#ff6b89"
      },
      "geometry": {
        "type": "Polygon",
        "coordinates": [[[-3, 46.5], [1, 46.5], [2, 48.5], [-1.5, 49.5], [-3, 46.5]]]
      }
    }
  ]
}
